[{"OBJECT_NAME":"LUCH-5A","OBJECT_ID":"2011-074B","EPOCH":"2026-03-06T06:11:42.318816","MEAN_MOTION":1.00275932,"ECCENTRICITY":0.00038907,"INCLINATION":8.4918,"RA_OF_ASC_NODE":75.3187,"ARG_OF_PERICENTER":247.7042,"MEAN_ANOMALY":101.0013,"EPHEMERIS_TYPE":0,"CLASSIFICATION_TYPE":"U","NORAD_CAT_ID":37951,"ELEMENT_SET_NO":999,"REV_AT_EPOCH":5201,"BSTAR":0,"MEAN_MOTION_DOT":-5.0e-7,"MEAN_MOTION_DDOT":0},{"OBJECT_NAME":"NIGCOMSAT 1R","OBJECT_ID":"2011-077A","EPOCH":"2026-03-05T08:45:38.834784","MEAN_MOTION":1.00277927,"ECCENTRICITY":0.000268,"INCLINATION":0.065,"RA_OF_ASC_NODE":252.7202,"ARG_OF_PERICENTER":78.1374,"MEAN_ANOMALY":6.202,"EPHEMERIS_TYPE":0,"CLASSIFICATION_TYPE":"U","NORAD_CAT_ID":38014,"ELEMENT_SET_NO":999,"REV_AT_EPOCH":5191,"BSTAR":0,"MEAN_MOTION_DOT":1.36e-6,"MEAN_MOTION_DDOT":0},{"OBJECT_NAME":"WGS F4 (USA 233)","OBJECT_ID":"2012-003A","EPOCH":"2026-03-05T17:50:27.060000","MEAN_MOTION":1.00272851,"ECCENTRICITY":6.14e-5,"INCLINATION":0.0097,"RA_OF_ASC_NODE":151.3509,"ARG_OF_PERICENTER":134.3109,"MEAN_ANOMALY":233.7866,"EPHEMERIS_TYPE":0,"CLASSIFICATION_TYPE":"U","NORAD_CAT_ID":38070,"ELEMENT_SET_NO":999,"REV_AT_EPOCH":4311,"BSTAR":0,"MEAN_MOTION_DOT":-2.21e-6,"MEAN_MOTION_DDOT":0},{"OBJECT_NAME":"SES-4","OBJECT_ID":"2012-007A","EPOCH":"2026-03-05T10:28:09.470208","MEAN_MOTION":1.00260475,"ECCENTRICITY":0.0002347,"INCLINATION":0.0359,"RA_OF_ASC_NODE":66.5072,"ARG_OF_PERICENTER":256.9214,"MEAN_ANOMALY":334.7775,"EPHEMERIS_TYPE":0,"CLASSIFICATION_TYPE":"U","NORAD_CAT_ID":38087,"ELEMENT_SET_NO":999,"REV_AT_EPOCH":5118,"BSTAR":0,"MEAN_MOTION_DOT":-1.78e-6,"MEAN_MOTION_DDOT":0},{"OBJECT_NAME":"BEIDOU-2 G5","OBJECT_ID":"2012-008A","EPOCH":"2026-03-06T02:15:27.472608","MEAN_MOTION":1.00277131,"ECCENTRICITY":0.00140172,"INCLINATION":3.3168,"RA_OF_ASC_NODE":70.3057,"ARG_OF_PERICENTER":251.3989,"MEAN_ANOMALY":294.8001,"EPHEMERIS_TYPE":0,"CLASSIFICATION_TYPE":"U","NORAD_CAT_ID":38091,"ELEMENT_SET_NO":999,"REV_AT_EPOCH":5133,"BSTAR":0,"MEAN_MOTION_DOT":5.1e-7,"MEAN_MOTION_DDOT":0},{"OBJECT_NAME":"INTELSAT 22 (IS-22)","OBJECT_ID":"2012-011A","EPOCH":"2026-03-06T02:19:12.114336","MEAN_MOTION":1.0027131,"ECCENTRICITY":0.00016684,"INCLINATION":0.0028,"RA_OF_ASC_NODE":173.3912,"ARG_OF_PERICENTER":192.4141,"MEAN_ANOMALY":264.9179,"EPHEMERIS_TYPE":0,"CLASSIFICATION_TYPE":"U","NORAD_CAT_ID":38098,"ELEMENT_SET_NO":999,"REV_AT_EPOCH":615,"BSTAR":0,"MEAN_MOTION_DOT":-6.4e-7,"MEAN_MOTION_DDOT":0},{"OBJECT_NAME":"COSMOS 2479","OBJECT_ID":"2012-012A","EPOCH":"2026-03-06T05:28:08.996160","MEAN_MOTION":1.0034026,"ECCENTRICITY":0.00070378,"INCLINATION":8.6139,"RA_OF_ASC_NODE":57.3609,"ARG_OF_PERICENTER":242.5101,"MEAN_ANOMALY":320.7668,"EPHEMERIS_TYPE":0,"CLASSIFICATION_TYPE":"U","NORAD_CAT_ID":38101,"ELEMENT_SET_NO":999,"REV_AT_EPOCH":5105,"BSTAR":0,"MEAN_MOTION_DOT":9.4e-7,"MEAN_MOTION_DDOT":0},{"OBJECT_NAME":"SL-12 R/B(2)","OBJECT_ID":"2012-012D","EPOCH":"2026-03-06T04:36:36.437760","MEAN_MOTION":1.00324625,"ECCENTRICITY":0.00127079,"INCLINATION":8.6017,"RA_OF_ASC_NODE":57.5713,"ARG_OF_PERICENTER":297.3754,"MEAN_ANOMALY":71.8006,"EPHEMERIS_TYPE":0,"CLASSIFICATION_TYPE":"U","NORAD_CAT_ID":38104,"ELEMENT_SET_NO":999,"REV_AT_EPOCH":5103,"BSTAR":0,"MEAN_MOTION_DOT":1.11e-6,"MEAN_MOTION_DDOT":0},{"OBJECT_NAME":"APSTAR-7","OBJECT_ID":"2012-013A","EPOCH":"2026-03-06T04:03:09.644832","MEAN_MOTION":1.0027183,"ECCENTRICITY":0.00023711,"INCLINATION":0.0091,"RA_OF_ASC_NODE":171.8481,"ARG_OF_PERICENTER":174.5566,"MEAN_ANOMALY":314.7604,"EPHEMERIS_TYPE":0,"CLASSIFICATION_TYPE":"U","NORAD_CAT_ID":38107,"ELEMENT_SET_NO":999,"REV_AT_EPOCH":5077,"BSTAR":0,"MEAN_MOTION_DOT":-1.06e-6,"MEAN_MOTION_DDOT":0},{"OBJECT_NAME":"YAHSAT 1B","OBJECT_ID":"2012-016A","EPOCH":"2026-03-06T05:50:38.914944","MEAN_MOTION":1.00273726,"ECCENTRICITY":0.00032625,"INCLINATION":0.088,"RA_OF_ASC_NODE":91.6596,"ARG_OF_PERICENTER":259.9703,"MEAN_ANOMALY":307.5907,"EPHEMERIS_TYPE":0,"CLASSIFICATION_TYPE":"U","NORAD_CAT_ID":38245,"ELEMENT_SET_NO":999,"REV_AT_EPOCH":4457,"BSTAR":0,"MEAN_MOTION_DOT":1.21e-6,"MEAN_MOTION_DDOT":0},{"OBJECT_NAME":"AEHF-2 (USA 235)","OBJECT_ID":"2012-019A","EPOCH":"2026-03-06T04:50:14.676000","MEAN_MOTION":1.00273275,"ECCENTRICITY":0.0003144,"INCLINATION":6.4114,"RA_OF_ASC_NODE":58.2348,"ARG_OF_PERICENTER":276.8421,"MEAN_ANOMALY":244.9087,"EPHEMERIS_TYPE":0,"CLASSIFICATION_TYPE":"U","NORAD_CAT_ID":38254,"ELEMENT_SET_NO":999,"REV_AT_EPOCH":595,"BSTAR":0,"MEAN_MOTION_DOT":-1.38e-6,"MEAN_MOTION_DDOT":0},{"OBJECT_NAME":"JCSAT-13","OBJECT_ID":"2012-023A","EPOCH":"2026-03-05T23:08:40.392096","MEAN_MOTION":1.00271883,"ECCENTRICITY":0.0002336,"INCLINATION":0.029,"RA_OF_ASC_NODE":255.7531,"ARG_OF_PERICENTER":135.511,"MEAN_ANOMALY":243.5956,"EPHEMERIS_TYPE":0,"CLASSIFICATION_TYPE":"U","NORAD_CAT_ID":38331,"ELEMENT_SET_NO":999,"REV_AT_EPOCH":5050,"BSTAR":0,"MEAN_MOTION_DOT":-3.62e-6,"MEAN_MOTION_DDOT":0},{"OBJECT_NAME":"VINASAT-2","OBJECT_ID":"2012-023B","EPOCH":"2026-03-06T06:01:43.277376","MEAN_MOTION":1.0027322,"ECCENTRICITY":0.00027866,"INCLINATION":0.0489,"RA_OF_ASC_NODE":320.7117,"ARG_OF_PERICENTER":43.823,"MEAN_ANOMALY":21.7014,"EPHEMERIS_TYPE":0,"CLASSIFICATION_TYPE":"U","NORAD_CAT_ID":38332,"ELEMENT_SET_NO":999,"REV_AT_EPOCH":4562,"BSTAR":0,"MEAN_MOTION_DOT":-3.34e-6,"MEAN_MOTION_DDOT":0},{"OBJECT_NAME":"NIMIQ 6","OBJECT_ID":"2012-026A","EPOCH":"2026-03-06T04:24:14.565024","MEAN_MOTION":1.00270854,"ECCENTRICITY":0.00025896,"INCLINATION":0.0513,"RA_OF_ASC_NODE":279.8792,"ARG_OF_PERICENTER":64.0571,"MEAN_ANOMALY":154.9117,"EPHEMERIS_TYPE":0,"CLASSIFICATION_TYPE":"U","NORAD_CAT_ID":38342,"ELEMENT_SET_NO":999,"REV_AT_EPOCH":4938,"BSTAR":0,"MEAN_MOTION_DOT":-1.79e-6,"MEAN_MOTION_DDOT":0},{"OBJECT_NAME":"ZHONGXING-2A","OBJECT_ID":"2012-028A","EPOCH":"2026-03-06T07:34:49.350144","MEAN_MOTION":1.00272127,"ECCENTRICITY":0.00011596,"INCLINATION":1.1886,"RA_OF_ASC_NODE":85.3425,"ARG_OF_PERICENTER":243.4023,"MEAN_ANOMALY":47.2538,"EPHEMERIS_TYPE":0,"CLASSIFICATION_TYPE":"U","NORAD_CAT_ID":38352,"ELEMENT_SET_NO":999,"REV_AT_EPOCH":5026,"BSTAR":0,"MEAN_MOTION_DOT":-2.97e-6,"MEAN_MOTION_DDOT":0},{"OBJECT_NAME":"INTELSAT 19 (IS-19)","OBJECT_ID":"2012-030A","EPOCH":"2026-03-05T13:47:38.794848","MEAN_MOTION":1.00265112,"ECCENTRICITY":0.0003028,"INCLINATION":0.0248,"RA_OF_ASC_NODE":145.0136,"ARG_OF_PERICENTER":212.2815,"MEAN_ANOMALY":178.9261,"EPHEMERIS_TYPE":0,"CLASSIFICATION_TYPE":"U","NORAD_CAT_ID":38356,"ELEMENT_SET_NO":999,"REV_AT_EPOCH":4941,"BSTAR":0,"MEAN_MOTION_DOT":0,"MEAN_MOTION_DDOT":0},{"OBJECT_NAME":"ECHOSTAR 17","OBJECT_ID":"2012-035A","EPOCH":"2026-03-06T06:36:09.973152","MEAN_MOTION":1.00271576,"ECCENTRICITY":0.00021088,"INCLINATION":0.0217,"RA_OF_ASC_NODE":136.4702,"ARG_OF_PERICENTER":212.6883,"MEAN_ANOMALY":166.7683,"EPHEMERIS_TYPE":0,"CLASSIFICATION_TYPE":"U","NORAD_CAT_ID":38551,"ELEMENT_SET_NO":999,"REV_AT_EPOCH":5003,"BSTAR":0,"MEAN_MOTION_DOT":-8.0e-7,"MEAN_MOTION_DDOT":0}]
